FLOCK 4BE-35            
1 60558U 24149CU  26073.50381126  .00113457  00000+0  24007-2 0  9993
2 60558  97.3784 156.8209 0005356 246.4142 113.6544 15.44693573 87744
FLOCK 4BE-5             
1 60559U 24149CV  26073.60948216  .00025154  00000+0  69072-3 0  9992
2 60559  97.3875 156.8993 0002527 265.3945  94.7011 15.37225797 87732
FLOCK 4BE-12            
1 60560U 24149CW  26073.19265008  .00137745  00000+0  26078-2 0  9997
2 60560  97.3747 157.2512 0006749 251.3561 108.6957 15.47842871 87769
FLOCK 4BE-3             
1 60561U 24149CX  26073.47822618  .00022365  00000+0  59160-3 0  9995
2 60561  97.3736 156.6906 0003412 254.5683 105.5186 15.38405261 87760
FLOCK 4BE-19            
1 60563U 24149CZ  26073.47822611  .00024634  00000+0  60618-3 0  9991
2 60563  97.3778 157.8138 0003329 261.0930  98.9939 15.40599963 87827
PELICAN-2               
1 62631U 25009Y   26073.20881452  .00059298  00000+0  14615-2 0  9993
2 62631  97.4014 163.5686 0008233 190.0764 170.0318 15.40326064 64936
PELICAN-3               
1 65315U 25188A   26071.72806461  .00059135  00000+0  14430-2 0  9990
2 65315  97.2259 149.2374 0004806 200.1511 159.9547 15.40654159 30467
PELICAN-4               
1 65316U 25188B   26073.17252513  .00010685  00000+0  26426-3 0  9991
2 65316  97.2259 150.7614 0000660  94.6272 265.5050 15.40632274 30687
