[{"OBJECT_NAME":"FLOCK 4BE-35","OBJECT_ID":"2024-149CU","EPOCH":"2026-03-14T12:05:29.292864","MEAN_MOTION":15.44693573,"ECCENTRICITY":0.00053561,"INCLINATION":97.3784,"RA_OF_ASC_NODE":156.8209,"ARG_OF_PERICENTER":246.4142,"MEAN_ANOMALY":113.6544,"EPHEMERIS_TYPE":0,"CLASSIFICATION_TYPE":"U","NORAD_CAT_ID":60558,"ELEMENT_SET_NO":999,"REV_AT_EPOCH":8774,"BSTAR":0.0024006753,"MEAN_MOTION_DOT":0.00113457,"MEAN_MOTION_DDOT":0},{"OBJECT_NAME":"FLOCK 4BE-5","OBJECT_ID":"2024-149CV","EPOCH":"2026-03-14T14:37:39.258624","MEAN_MOTION":15.37225797,"ECCENTRICITY":0.00025272,"INCLINATION":97.3875,"RA_OF_ASC_NODE":156.8993,"ARG_OF_PERICENTER":265.3945,"MEAN_ANOMALY":94.7011,"EPHEMERIS_TYPE":0,"CLASSIFICATION_TYPE":"U","NORAD_CAT_ID":60559,"ELEMENT_SET_NO":999,"REV_AT_EPOCH":8773,"BSTAR":0.00069072459,"MEAN_MOTION_DOT":0.00025154,"MEAN_MOTION_DDOT":0},{"OBJECT_NAME":"FLOCK 4BE-12","OBJECT_ID":"2024-149CW","EPOCH":"2026-03-14T04:37:24.966912","MEAN_MOTION":15.47842871,"ECCENTRICITY":0.00067496,"INCLINATION":97.3747,"RA_OF_ASC_NODE":157.2512,"ARG_OF_PERICENTER":251.3561,"MEAN_ANOMALY":108.6957,"EPHEMERIS_TYPE":0,"CLASSIFICATION_TYPE":"U","NORAD_CAT_ID":60560,"ELEMENT_SET_NO":999,"REV_AT_EPOCH":8776,"BSTAR":0.0026077886,"MEAN_MOTION_DOT":0.00137745,"MEAN_MOTION_DDOT":0},{"OBJECT_NAME":"FLOCK 4BE-3","OBJECT_ID":"2024-149CX","EPOCH":"2026-03-14T11:28:38.741952","MEAN_MOTION":15.38405261,"ECCENTRICITY":0.00034126,"INCLINATION":97.3736,"RA_OF_ASC_NODE":156.6906,"ARG_OF_PERICENTER":254.5683,"MEAN_ANOMALY":105.5186,"EPHEMERIS_TYPE":0,"CLASSIFICATION_TYPE":"U","NORAD_CAT_ID":60561,"ELEMENT_SET_NO":999,"REV_AT_EPOCH":8776,"BSTAR":0.00059160215,"MEAN_MOTION_DOT":0.00022365,"MEAN_MOTION_DDOT":0},{"OBJECT_NAME":"FLOCK 4BE-19","OBJECT_ID":"2024-149CZ","EPOCH":"2026-03-14T11:28:38.735904","MEAN_MOTION":15.40599963,"ECCENTRICITY":0.00033295,"INCLINATION":97.3778,"RA_OF_ASC_NODE":157.8138,"ARG_OF_PERICENTER":261.093,"MEAN_ANOMALY":98.9939,"EPHEMERIS_TYPE":0,"CLASSIFICATION_TYPE":"U","NORAD_CAT_ID":60563,"ELEMENT_SET_NO":999,"REV_AT_EPOCH":8782,"BSTAR":0.00060617566,"MEAN_MOTION_DOT":0.00024634,"MEAN_MOTION_DDOT":0},{"OBJECT_NAME":"PELICAN-2","OBJECT_ID":"2025-009Y","EPOCH":"2026-03-14T05:00:41.574528","MEAN_MOTION":15.40326064,"ECCENTRICITY":0.00082333,"INCLINATION":97.4014,"RA_OF_ASC_NODE":163.5686,"ARG_OF_PERICENTER":190.0764,"MEAN_ANOMALY":170.0318,"EPHEMERIS_TYPE":0,"CLASSIFICATION_TYPE":"U","NORAD_CAT_ID":62631,"ELEMENT_SET_NO":999,"REV_AT_EPOCH":6493,"BSTAR":0.0014615153,"MEAN_MOTION_DOT":0.00059298,"MEAN_MOTION_DDOT":0},{"OBJECT_NAME":"PELICAN-3","OBJECT_ID":"2025-188A","EPOCH":"2026-03-12T17:28:24.782304","MEAN_MOTION":15.40654159,"ECCENTRICITY":0.00048061,"INCLINATION":97.2259,"RA_OF_ASC_NODE":149.2374,"ARG_OF_PERICENTER":200.1511,"MEAN_ANOMALY":159.9547,"EPHEMERIS_TYPE":0,"CLASSIFICATION_TYPE":"U","NORAD_CAT_ID":65315,"ELEMENT_SET_NO":999,"REV_AT_EPOCH":3046,"BSTAR":0.0014429578,"MEAN_MOTION_DOT":0.00059135,"MEAN_MOTION_DDOT":0},{"OBJECT_NAME":"PELICAN-4","OBJECT_ID":"2025-188B","EPOCH":"2026-03-14T04:08:26.171232","MEAN_MOTION":15.40632274,"ECCENTRICITY":6.608e-5,"INCLINATION":97.2259,"RA_OF_ASC_NODE":150.7614,"ARG_OF_PERICENTER":94.6272,"MEAN_ANOMALY":265.505,"EPHEMERIS_TYPE":0,"CLASSIFICATION_TYPE":"U","NORAD_CAT_ID":65316,"ELEMENT_SET_NO":999,"REV_AT_EPOCH":3068,"BSTAR":0.00026426095,"MEAN_MOTION_DOT":0.00010685,"MEAN_MOTION_DDOT":0}]
